{"type": "FeatureCollection", "features": [{"type": "Feature", "properties": {"h3_index": "874468428ffffff", "total_count": 1, "source": "texasmushrooms", "elevation": 112.0}, "geometry": {"type": "Polygon", "coordinates": [[[-94.44787051851166, 30.766304083171693], [-94.43817417596709, 30.776565170533747], [-94.44365195785146, 30.78924428401964], [-94.45882935507494, 30.791662519173887], [-94.46852646875415, 30.781400211220703], [-94.46304541465254, 30.76872088889241], [-94.44787051851166, 30.766304083171693]]]}}, {"type": "Feature", "properties": {"h3_index": "874468510ffffff", "total_count": 39, "source": "texasmushrooms", "elevation": 52.0}, "geometry": {"type": "Polygon", "coordinates": [[[-94.33680783331936, 30.606865637762432], [-94.32712224166005, 30.617125405804245], [-94.33257619444402, 30.62980839123552], [-94.34771900895196, 30.63223182463065], [-94.35740538504882, 30.621970830474666], [-94.35194816277048, 30.609287629226216], [-94.33680783331936, 30.606865637762432]]]}}, {"type": "Feature", "properties": {"h3_index": "874468514ffffff", "total_count": 46, "source": "texasmushrooms", "elevation": 40.0}, "geometry": {"type": "Polygon", "coordinates": [[[-94.34103791328745, 30.583920330964713], [-94.331354342842, 30.594182096240292], [-94.33680783331936, 30.606865637762432], [-94.35194816277048, 30.609287629226216], [-94.36163251675559, 30.599024636823064], [-94.35617575832005, 30.58634088027223], [-94.34103791328745, 30.583920330964713]]]}}, {"type": "Feature", "properties": {"h3_index": "874468526ffffff", "total_count": 12, "source": "texasmushrooms", "elevation": 40.0}, "geometry": {"type": "Polygon", "coordinates": [[[-94.41971579486422, 30.537410196647727], [-94.41003797009765, 30.54768360768501], [-94.41550079191386, 30.560368337231935], [-94.43064469995014, 30.562779863152972], [-94.44032329671363, 30.552505222195162], [-94.43485721401665, 30.539820285425265], [-94.41971579486422, 30.537410196647727]]]}}, {"type": "Feature", "properties": {"h3_index": "874468532ffffff", "total_count": 10, "source": "texasmushrooms", "elevation": 39.0}, "geometry": {"type": "Polygon", "coordinates": [[[-94.3452664351635, 30.560972478153644], [-94.33558488520565, 30.57123623711912], [-94.34103791328745, 30.583920330964713], [-94.35617575832005, 30.58634088027223], [-94.36585809092045, 30.576075893165306], [-94.36040179641569, 30.563391585080865], [-94.3452664351635, 30.560972478153644]]]}}, {"type": "Feature", "properties": {"h3_index": "874468533ffffff", "total_count": 160, "source": "texasmushrooms", "elevation": 44.0}, "geometry": {"type": "Polygon", "coordinates": [[[-94.36585809092045, 30.576075893165306], [-94.35617575832005, 30.58634088027223], [-94.36163251675559, 30.599024636823064], [-94.3767748744769, 30.60144361914627], [-94.38645798706784, 30.591177404315967], [-94.38099796251801, 30.57849343507432], [-94.36585809092045, 30.576075893165306]]]}}, {"type": "Feature", "properties": {"h3_index": "874468535ffffff", "total_count": 1, "source": "texasmushrooms", "elevation": 42.0}, "geometry": {"type": "Polygon", "coordinates": [[[-94.39489856468327, 30.54527051246471], [-94.38521949447156, 30.555540708088174], [-94.39067905355574, 30.568225228073178], [-94.40582094615546, 30.5706397621851], [-94.41550079191386, 30.560368337231935], [-94.41003797009765, 30.54768360768501], [-94.39489856468327, 30.54527051246471]]]}}, {"type": "Feature", "properties": {"h3_index": "874468801ffffff", "total_count": 51, "source": "texasmushrooms", "elevation": 58.0}, "geometry": {"type": "Polygon", "coordinates": [[[-95.12336736226212, 30.39896967105775], [-95.11371916243063, 30.40932779336835], [-95.11927782758688, 30.42201545125423], [-95.13448790480206, 30.424345129483264], [-95.14413677655917, 30.413985765065163], [-95.138574899775, 30.40129796471243], [-95.12336736226212, 30.39896967105775]]]}}, {"type": "Feature", "properties": {"h3_index": "87446882affffff", "total_count": 503, "source": "texasmushrooms", "elevation": 67.0}, "geometry": {"type": "Polygon", "coordinates": [[[-95.14822174365365, 30.390936677238166], [-95.138574899775, 30.40129796471243], [-95.14413677655917, 30.413985765065163], [-95.1593487074834, 30.416312418251746], [-95.16899621969804, 30.4059498881439], [-95.16343113325286, 30.393261947669917], [-95.14822174365365, 30.390936677238166]]]}}, {"type": "Feature", "properties": {"h3_index": "874468858ffffff", "total_count": 37, "source": "texasmushrooms", "elevation": 84.0}, "geometry": {"type": "Polygon", "coordinates": [[[-95.21506835103816, 30.543172014439897], [-95.20541072093737, 30.553530539911254], [-95.2109895725848, 30.566214475258644], [-95.22622926890219, 30.56854002240815], [-95.23588755965463, 30.55818026013513], [-95.23030549404348, 30.545496187700675], [-95.21506835103816, 30.543172014439897]]]}}, {"type": "Feature", "properties": {"h3_index": "87446885cffffff", "total_count": 192, "source": "texasmushrooms", "elevation": 97.0}, "geometry": {"type": "Polygon", "coordinates": [[[-95.21914561433165, 30.52012705104862], [-95.2094900177021, 30.53048751435607], [-95.21506835103816, 30.543172014439897], [-95.23030549404348, 30.545496187700675], [-95.23996175048649, 30.535134486604008], [-95.23438020471599, 30.5224498502222], [-95.21914561433165, 30.52012705104862]]]}}, {"type": "Feature", "properties": {"h3_index": "8744688e2ffffff", "total_count": 721, "source": "texasmushrooms", "elevation": 93.0}, "geometry": {"type": "Polygon", "coordinates": [[[-95.08212796858814, 30.499151492628215], [-95.07247030133006, 30.509498712933606], [-95.07802779075053, 30.52218403165305], [-95.09324616772783, 30.52452227824308], [-95.10290451388059, 30.514173820332616], [-95.09734380476074, 30.501488353624087], [-95.08212796858814, 30.499151492628215]]]}}, {"type": "Feature", "properties": {"h3_index": "8744688e3ffffff", "total_count": 106, "source": "texasmushrooms", "elevation": 92.0}, "geometry": {"type": "Polygon", "coordinates": [[[-95.10290451388059, 30.514173820332616], [-95.09324616772783, 30.52452227824308], [-95.09880738768781, 30.537207187657874], [-95.11403017366419, 30.53954378578545], [-95.12368919596074, 30.529194090731107], [-95.11812475673759, 30.516509034879856], [-95.10290451388059, 30.514173820332616]]]}}, {"type": "Feature", "properties": {"h3_index": "874468b08ffffff", "total_count": 2, "source": "texasmushrooms", "elevation": 100.0}, "geometry": {"type": "Polygon", "coordinates": [[[-95.43171719507475, 30.64705075581822], [-95.42205716653238, 30.657425519930932], [-95.42767233477039, 30.670106129013945], [-95.44295073829223, 30.67241209410671], [-95.45261139793384, 30.662036095940653], [-95.44699302357026, 30.649355366920744], [-95.43171719507475, 30.64705075581822]]]}}, {"type": "Feature", "properties": {"h3_index": "874468b0affffff", "total_count": 20, "source": "texasmushrooms", "elevation": 129.0}, "geometry": {"type": "Polygon", "coordinates": [[[-95.40678313624083, 30.6551178529864], [-95.39712170138115, 30.66548943948125], [-95.40273366146606, 30.678169926285165], [-95.41801026517875, 30.680478949058962], [-95.42767233477039, 30.670106129013945], [-95.42205716653238, 30.657425519930932], [-95.40678313624083, 30.6551178529864]]]}}, {"type": "Feature", "properties": {"h3_index": "874468b0effffff", "total_count": 54, "source": "texasmushrooms", "elevation": 124.0}, "geometry": {"type": "Polygon", "coordinates": [[[-95.41083110246069, 30.632063248557102], [-95.40117170782283, 30.642436778141015], [-95.40678313624083, 30.6551178529864], [-95.42205716653238, 30.657425519930932], [-95.43171719507475, 30.64705075581822], [-95.42610256003584, 30.634369559475434], [-95.41083110246069, 30.632063248557102]]]}}, {"type": "Feature", "properties": {"h3_index": "874468b19ffffff", "total_count": 5, "source": "texasmushrooms", "elevation": 131.0}, "geometry": {"type": "Polygon", "coordinates": [[[-95.38184947502404, 30.663178716921113], [-95.37218663755287, 30.673547123684717], [-95.3777953874609, 30.686227485867473], [-95.3930701856311, 30.688539566093468], [-95.40273366146606, 30.678169926285165], [-95.39712170138115, 30.66548943948125], [-95.38184947502404, 30.663178716921113]]]}}, {"type": "Feature", "properties": {"h3_index": "874468b1dffffff", "total_count": 28, "source": "texasmushrooms", "elevation": 117.0}, "geometry": {"type": "Polygon", "coordinates": [[[-95.38590205257542, 30.6401274134446], [-95.37624125525022, 30.650497765915564], [-95.38184947502404, 30.663178716921113], [-95.39712170138115, 30.66548943948125], [-95.40678313624083, 30.6551178529864], [-95.40117170782283, 30.642436778141015], [-95.38590205257542, 30.6401274134446]]]}}, {"type": "Feature", "properties": {"h3_index": "874468b53ffffff", "total_count": 24, "source": "texasmushrooms", "elevation": 95.0}, "geometry": {"type": "Polygon", "coordinates": [[[-95.46543492944244, 30.723130508295277], [-95.45576955535347, 30.733503844398943], [-95.46139327839045, 30.746182310272303], [-95.47668558432586, 30.748487558597237], [-95.4863515855406, 30.738112991343645], [-95.48072465431258, 30.72543440710041], [-95.46543492944244, 30.723130508295277]]]}}, {"type": "Feature", "properties": {"h3_index": "874468b75ffffff", "total_count": 2, "source": "texasmushrooms", "elevation": 126.0}, "geometry": {"type": "Polygon", "coordinates": [[[-95.5274308321653, 30.637788600928058], [-95.51777442459964, 30.648174120711843], [-95.52340294441504, 30.660854607557667], [-95.5386910719242, 30.663149686153563], [-95.54834809686808, 30.652762931302007], [-95.54271637754415, 30.640082333107586], [-95.5274308321653, 30.637788600928058]]]}}, {"type": "Feature", "properties": {"h3_index": "874468c92ffffff", "total_count": 105, "source": "texasmushrooms", "elevation": 28.0}, "geometry": {"type": "Polygon", "coordinates": [[[-94.34159331324389, 30.45405406604343], [-94.33192061968667, 30.464324531650934], [-94.33736807386575, 30.477011117928136], [-94.35249148276871, 30.479427451395363], [-94.36216495803235, 30.46915575316482], [-94.35671424325486, 30.456468954278797], [-94.34159331324389, 30.45405406604343]]]}}, {"type": "Feature", "properties": {"h3_index": "874468c9bffffff", "total_count": 6, "source": "texasmushrooms", "elevation": 33.0}, "geometry": {"type": "Polygon", "coordinates": [[[-94.3991165212642, 30.522313264813977], [-94.3894394711516, 30.5325854455084], [-94.39489856468327, 30.54527051246471], [-94.41003797009765, 30.54768360768501], [-94.41971579486422, 30.537410196647727], [-94.41425344013409, 30.52472492092149], [-94.3991165212642, 30.522313264813977]]]}}, {"type": "Feature", "properties": {"h3_index": "874468d93ffffff", "total_count": 61, "source": "texasmushrooms", "elevation": 29.0}, "geometry": {"type": "Polygon", "coordinates": [[[-94.39167757433674, 30.308380156042045], [-94.38201820190162, 30.318665610903857], [-94.38746613782273, 30.331355531123858], [-94.40257669634333, 30.333760202130843], [-94.41223684160609, 30.323473507945565], [-94.40678565608877, 30.310783382265654], [-94.39167757433674, 30.308380156042045]]]}}, {"type": "Feature", "properties": {"h3_index": "87446c20cffffff", "total_count": 2, "source": "texasmushrooms", "elevation": 32.0}, "geometry": {"type": "Polygon", "coordinates": [[[-95.37476736400392, 30.03437641045612], [-95.3651564178866, 30.044784224773604], [-95.37073391360364, 30.057479572987198], [-95.38592553213957, 30.059767220251906], [-95.39553711075504, 30.04935814678333], [-95.3899564389404, 30.036662685387903], [-95.37476736400392, 30.03437641045612]]]}}, {"type": "Feature", "properties": {"h3_index": "87446d440ffffff", "total_count": 304, "source": "texasmushrooms", "elevation": 123.0}, "geometry": {"type": "Polygon", "coordinates": [[[-95.74291261857574, 30.48046133883786], [-95.73327587508487, 30.490879783139903], [-95.73892772720778, 30.503563398939992], [-95.75421950037995, 30.505828660076965], [-95.76385682890499, 30.495408972946915], [-95.75820179984935, 30.48272526769261], [-95.74291261857574, 30.48046133883786]]]}}, {"type": "Feature", "properties": {"h3_index": "87446d441ffffff", "total_count": 340, "source": "texasmushrooms", "elevation": 110.0}, "geometry": {"type": "Polygon", "coordinates": [[[-95.76385682890499, 30.495408972946915], [-95.75421950037995, 30.505828660076965], [-95.75987508257502, 30.5185117958996], [-95.77517117030304, 30.52077533267544], [-95.78480908102358, 30.510354403217654], [-95.77915032244734, 30.497671179496372], [-95.76385682890499, 30.495408972946915]]]}}, {"type": "Feature", "properties": {"h3_index": "87446d442ffffff", "total_count": 651, "source": "texasmushrooms", "elevation": 109.0}, "geometry": {"type": "Polygon", "coordinates": [[[-95.71798841836853, 30.488612801725573], [-95.708350224068, 30.499028102142717], [-95.71399889718776, 30.511711626143466], [-95.72928894423599, 30.513979941711238], [-95.73892772720778, 30.503563398939992], [-95.73327587508487, 30.490879783139903], [-95.71798841836853, 30.488612801725573]]]}}, {"type": "Feature", "properties": {"h3_index": "87446d443ffffff", "total_count": 61, "source": "texasmushrooms", "elevation": 135.0}, "geometry": {"type": "Polygon", "coordinates": [[[-95.73892772720778, 30.503563398939992], [-95.72928894423599, 30.513979941711238], [-95.73494134797527, 30.52666298729032], [-95.75023571376799, 30.528929580526416], [-95.75987508257502, 30.5185117958996], [-95.75421950037995, 30.505828660076965], [-95.73892772720778, 30.503563398939992]]]}}, {"type": "Feature", "properties": {"h3_index": "87446d446ffffff", "total_count": 96, "source": "texasmushrooms", "elevation": 97.0}, "geometry": {"type": "Polygon", "coordinates": [[[-95.72197645100094, 30.46551150955613], [-95.71234029537906, 30.475928710530642], [-95.71798841836853, 30.488612801725573], [-95.73327587508487, 30.490879783139903], [-95.74291261857574, 30.48046133883786], [-95.73726131810584, 30.467777156633858], [-95.72197645100094, 30.46551150955613]]]}}, {"type": "Feature", "properties": {"h3_index": "87446d448ffffff", "total_count": 156, "source": "texasmushrooms", "elevation": 123.0}, "geometry": {"type": "Polygon", "coordinates": [[[-95.78083048350629, 30.533457983936895], [-95.77119053170387, 30.54387700992007], [-95.77685039949907, 30.556559084905736], [-95.79215339707419, 30.558822221222563], [-95.80179392902826, 30.54840195438299], [-95.79613088388359, 30.53571979226751], [-95.78083048350629, 30.533457983936895]]]}}, {"type": "Feature", "properties": {"h3_index": "87446d44cffffff", "total_count": 345, "source": "texasmushrooms", "elevation": 133.0}, "geometry": {"type": "Polygon", "coordinates": [[[-95.78480908102358, 30.510354403217654], [-95.77517117030304, 30.52077533267544], [-95.78083048350629, 30.533457983936895], [-95.79613088388359, 30.53571979226751], [-95.80576937395705, 30.525297620982965], [-95.8001068849281, 30.512614883379104], [-95.78480908102358, 30.510354403217654]]]}}, {"type": "Feature", "properties": {"h3_index": "87446d44effffff", "total_count": 351, "source": "texasmushrooms", "elevation": 121.0}, "geometry": {"type": "Polygon", "coordinates": [[[-95.75987508257502, 30.5185117958996], [-95.75023571376799, 30.528929580526416], [-95.75589184906664, 30.541612143100842], [-95.77119053170387, 30.54387700992007], [-95.78083048350629, 30.533457983936895], [-95.77517117030304, 30.52077533267544], [-95.75987508257502, 30.5185117958996]]]}}, {"type": "Feature", "properties": {"h3_index": "87446d452ffffff", "total_count": 87, "source": "texasmushrooms", "elevation": 90.0}, "geometry": {"type": "Polygon", "coordinates": [[[-95.64721944037414, 30.489938436306655], [-95.63757895426912, 30.500346200515313], [-95.64321753243522, 30.51303000461141], [-95.65849978099611, 30.515306142728683], [-95.6681408658708, 30.504897136626386], [-95.66249910403693, 30.492213234485526], [-95.64721944037414, 30.489938436306655]]]}}, {"type": "Feature", "properties": {"h3_index": "87446d453ffffff", "total_count": 3183, "source": "texasmushrooms", "elevation": 83.0}, "geometry": {"type": "Polygon", "coordinates": [[[-95.6681408658708, 30.504897136626386], [-95.65849978099611, 30.515306142728683], [-95.66414208991321, 30.527989476095943], [-95.67942866746091, 30.53026390003505], [-95.68907034827858, 30.5198536525334], [-95.68342485622863, 30.507170222676958], [-95.6681408658708, 30.504897136626386]]]}}, {"type": "Feature", "properties": {"h3_index": "87446d454ffffff", "total_count": 24, "source": "texasmushrooms", "elevation": 97.0}, "geometry": {"type": "Polygon", "coordinates": [[[-95.67613394408323, 30.458705041194808], [-95.66649693561766, 30.46911785541111], [-95.672138150329, 30.481802322510593], [-95.68741955421473, 30.484074070487594], [-95.69705715701191, 30.473660012922345], [-95.69141276221443, 30.46097545091406], [-95.67613394408323, 30.458705041194808]]]}}, {"type": "Feature", "properties": {"h3_index": "87446d455ffffff", "total_count": 148, "source": "texasmushrooms", "elevation": 111.0}, "geometry": {"type": "Polygon", "coordinates": [[[-95.69705715701191, 30.473660012922345], [-95.68741955421473, 30.484074070487594], [-95.69306449765762, 30.496758068328113], [-95.708350224068, 30.499028102142717], [-95.71798841836853, 30.488612801725573], [-95.71234029537906, 30.475928710530642], [-95.69705715701191, 30.473660012922345]]]}}, {"type": "Feature", "properties": {"h3_index": "87446d456ffffff", "total_count": 122, "source": "texasmushrooms", "elevation": 85.0}, "geometry": {"type": "Polygon", "coordinates": [[[-95.65121985613676, 30.466844397355743], [-95.64158140780712, 30.477254066461448], [-95.64721944037414, 30.489938436306655], [-95.66249910403693, 30.492213234485526], [-95.672138150329, 30.481802322510593], [-95.66649693561766, 30.46911785541111], [-95.65121985613676, 30.466844397355743]]]}}, {"type": "Feature", "properties": {"h3_index": "87446d471ffffff", "total_count": 5, "source": "texasmushrooms", "elevation": 103.0}, "geometry": {"type": "Polygon", "coordinates": [[[-95.72596299587931, 30.442407757088553], [-95.71632887817921, 30.452826854984643], [-95.72197645100094, 30.46551150955613], [-95.73726131810584, 30.467777156633858], [-95.7468960228735, 30.457356814436285], [-95.74124527409305, 30.444672069647332], [-95.72596299587931, 30.442407757088553]]]}}, {"type": "Feature", "properties": {"h3_index": "87446d473ffffff", "total_count": 13, "source": "texasmushrooms", "elevation": 85.0}, "geometry": {"type": "Polygon", "coordinates": [[[-95.70104832713635, 30.450559493765923], [-95.69141276221443, 30.46097545091406], [-95.69705715701191, 30.473660012922345], [-95.71234029537906, 30.475928710530642], [-95.72197645100094, 30.46551150955613], [-95.71632887817921, 30.452826854984643], [-95.70104832713635, 30.450559493765923]]]}}, {"type": "Feature", "properties": {"h3_index": "87446d4d8ffffff", "total_count": 58, "source": "texasmushrooms", "elevation": 102.0}, "geometry": {"type": "Polygon", "coordinates": [[[-95.53548210233322, 30.59164903059759], [-95.52582977665598, 30.602038413900196], [-95.53145721787125, 30.61472007280484], [-95.54674018183155, 30.6170124583749], [-95.55639312325042, 30.60662183805331], [-95.55076248558652, 30.593940069365946], [-95.53548210233322, 30.59164903059759]]]}}, {"type": "Feature", "properties": {"h3_index": "87446d4daffffff", "total_count": 73, "source": "texasmushrooms", "elevation": 102.0}, "geometry": {"type": "Polygon", "coordinates": [[[-95.51055116706927, 30.599744320283815], [-95.5008974202015, 30.610130537105928], [-95.50652166292625, 30.6228120838846], [-95.52180285162756, 30.625107526152494], [-95.53145721787125, 30.61472007280484], [-95.52582977665598, 30.602038413900196], [-95.51055116706927, 30.599744320283815]]]}}, {"type": "Feature", "properties": {"h3_index": "87446d4dbffffff", "total_count": 75, "source": "texasmushrooms", "elevation": 86.0}, "geometry": {"type": "Polygon", "coordinates": [[[-95.53145721787125, 30.61472007280484], [-95.52180285162756, 30.625107526152494], [-95.5274308321653, 30.637788600928058], [-95.54271637754415, 30.640082333107586], [-95.55237136034737, 30.6296936437168], [-95.54674018183155, 30.6170124583749], [-95.53145721787125, 30.61472007280484]]]}}, {"type": "Feature", "properties": {"h3_index": "87446d4e8ffffff", "total_count": 54, "source": "texasmushrooms", "elevation": 106.0}, "geometry": {"type": "Polygon", "coordinates": [[[-95.63921413152399, 30.536119094827352], [-95.62956956760067, 30.546523038357606], [-95.63520923684399, 30.559205699516433], [-95.65049665735056, 30.561484516951772], [-95.66014182166028, 30.55107933347762], [-95.65449896569943, 30.538396572697057], [-95.63921413152399, 30.536119094827352]]]}}, {"type": "Feature", "properties": {"h3_index": "87446d4eeffffff", "total_count": 456, "source": "texasmushrooms", "elevation": 75.0}, "geometry": {"type": "Polygon", "coordinates": [[[-95.6182945067773, 30.5211566702843], [-95.60865054606548, 30.531559373379153], [-95.61428648254258, 30.544242506733994], [-95.62956956760067, 30.546523038357606], [-95.63921413152399, 30.536119094827352], [-95.63357500779908, 30.52343586029399], [-95.6182945067773, 30.5211566702843]]]}}, {"type": "Feature", "properties": {"h3_index": "87446e249ffffff", "total_count": 6, "source": "texasmushrooms", "elevation": 41.0}, "geometry": {"type": "Polygon", "coordinates": [[[-94.32045155437199, 30.568814124937326], [-94.31076877011522, 30.579074662668894], [-94.31621852993439, 30.591758539937697], [-94.331354342842, 30.594182096240292], [-94.34103791328745, 30.583920330964713], [-94.33558488520565, 30.57123623711912], [-94.32045155437199, 30.568814124937326]]]}}, {"type": "Feature", "properties": {"h3_index": "87446e268ffffff", "total_count": 4, "source": "texasmushrooms", "elevation": 26.0}, "geometry": {"type": "Polygon", "coordinates": [[[-94.33314127910273, 30.49996565708844], [-94.32346455143949, 30.51023216220088], [-94.32891292814186, 30.522917676193455], [-94.34404129673737, 30.525336899462385], [-94.35371880789755, 30.51506916375987], [-94.34826716753383, 30.50238343556716], [-94.33314127910273, 30.49996565708844]]]}}]}
